[{"OBJECT_NAME":"STARLINK-31964","OBJECT_ID":"2024-100L","EPOCH":"2026-03-09T12:17:07.810944","MEAN_MOTION":15.27573524,"ECCENTRICITY":7.714e-5,"INCLINATION":42.9965,"RA_OF_ASC_NODE":126.056,"ARG_OF_PERICENTER":288.8537,"MEAN_ANOMALY":71.2231,"EPHEMERIS_TYPE":0,"CLASSIFICATION_TYPE":"U","NORAD_CAT_ID":59895,"ELEMENT_SET_NO":999,"REV_AT_EPOCH":10108,"BSTAR":-5.820817e-5,"MEAN_MOTION_DOT":-1.863e-5,"MEAN_MOTION_DDOT":0},{"OBJECT_NAME":"CZ-4B DEB","OBJECT_ID":"2010-051E","EPOCH":"2026-03-08T22:01:50.125728","MEAN_MOTION":15.23766972,"ECCENTRICITY":0.00561086,"INCLINATION":97.769,"RA_OF_ASC_NODE":240.5013,"ARG_OF_PERICENTER":301.1291,"MEAN_ANOMALY":58.4449,"EPHEMERIS_TYPE":0,"CLASSIFICATION_TYPE":"U","NORAD_CAT_ID":38184,"ELEMENT_SET_NO":999,"REV_AT_EPOCH":82066,"BSTAR":0.0024566319,"MEAN_MOTION_DOT":0.00062123,"MEAN_MOTION_DDOT":0}]
